OBJECT B                
1 51825U 22019B   25252.30192745  .00024400  00000+0  53040-3 0  9996
2 51825  97.3788 330.0516 0010191  82.7110 277.5296 15.44275900196038
